,POSTCODE,CITY,STATE,Latitude,Longitude,LongLat,Location
0,50000,Kuala Lumpur,KUL,3.1429340839385986,101.69637298583984,"3.1429340839385986,101.69637298583984",Jalan Tun H.S. Lee and Jalan Sultan
1,50050,Kuala Lumpur,KUL,3.147618055343628,101.69628143310547,"3.147618055343628,101.69628143310547","Jalan Tun Tan Siew Tin, between Medan Pasar Besar and Jalan Tun H.S. Lee"
2,50100,Kuala Lumpur,KUL,3.152209997177124,101.6965103149414,"3.152209997177124,101.6965103149414",Lorong Tuanku Abdul Rahman Kiri 2 and Lorong Tuanku Abdul Rahman
3,50200,Kuala Lumpur,KUL,3.1437089443206787,101.71195220947266,"3.1437089443206787,101.71195220947266",Jalan Imbi and Jalan Sultan Ismail
4,50350,Kuala Lumpur,KUL,3.173630952835083,101.68558502197266,"3.173630952835083,101.68558502197266",Lorong Kolam Air 7 and Jalan Kolam Air 6
5,50400,Kuala Lumpur,KUL,3.1717569828033447,101.69598388671875,"3.1717569828033447,101.69598388671875","Jalan Pangkur, between Jalan Cemur and Jalan 1/68D"
6,50450,Kuala Lumpur,KUL,3.1595540046691895,101.71791076660156,"3.1595540046691895,101.71791076660156","Jalan Ampang, between Jalan Binjai and Jalan Tun Razak"
7,50470,Kuala Lumpur,KUL,3.1322710514068604,101.6874008178711,"3.1322710514068604,101.6874008178711",Jalan Tun Sambanthan and Jalan Stesen Sentral 5
8,50480,Kuala Lumpur,KUL,3.1626689434051514,101.6399154663086,"3.1626689434051514,101.6399154663086",Jalan Serene Kiara 8 and Jalan Serene Kiara 6
9,50490,Kuala Lumpur,KUL,3.155298948287964,101.66345977783203,"3.155298948287964,101.66345977783203",Lorong Derumun and Persiaran Derumun
10,50500,Kuala Lumpur,KUL,3.1339480876922607,101.69705963134766,"3.1339480876922607,101.69705963134766",Jalan Syed Putra and Jalan Istana
11,50502,Kuala Lumpur,KUL,3.157581090927124,101.69625854492188,"3.157581090927124,101.69625854492188","Jalan Tuanku Abdul Rahman, between Jalan Mara and Jalan Dang Wangi"
12,50504,Kuala Lumpur,KUL,3.1623780727386475,101.69694519042969,"3.1623780727386475,101.69694519042969",Jalan Raja Laut and Jalan Sri Amar
13,50508,Kuala Lumpur,KUL,3.150465965270996,101.6976318359375,"3.150465965270996,101.6976318359375","Jalan Gereja, between Jalan Melaka and Lorong Ampang"
14,50512,Kuala Lumpur,KUL,3.150315999984741,101.69219207763672,"3.150315999984741,101.69219207763672","Jalan Tangsi, between Jalan Parlimen and Jalan Kinabalu"
15,50514,Kuala Lumpur,KUL,3.138731002807617,101.69659423828125,"3.138731002807617,101.69659423828125","Jalan Kampung Attap, between Jalan Tuba and Jalan Manau"
16,50515,Kuala Lumpur,KUL,3.15883207321167,101.69564056396484,"3.15883207321167,101.69564056396484","Jalan Merpati, between Jalan Tuanku Abdul Rahman and Jalan Raja Laut"
17,50530,Kuala Lumpur,KUL,3.145833969116211,101.66374969482422,"3.145833969116211,101.66374969482422","Jalan Semantan, between E23 and Lebuhraya Sprint"
18,50532,Kuala Lumpur,KUL,3.160098075866699,101.73490905761719,"3.160098075866699,101.73490905761719","Jalan Ampang, between Jalan Ampang Tengah and Jalan Jelatek"
19,50534,Kuala Lumpur,KUL,3.1566359996795654,101.72233581542969,"3.1566359996795654,101.72233581542969",Jalan 1/68F and Jalan Taman U-Thant
20,50550,Kuala Lumpur,KUL,3.1683189868927,101.66805267333984,"3.1683189868927,101.66805267333984","Jalan Sri Hartamas 1, between Persiaran Nusantara and Persiaran Dutamas"
21,50552,Kuala Lumpur,KUL,3.1732139587402344,101.69325256347656,"3.1732139587402344,101.69325256347656","Jalan Kampar, between Jalan Tun Razak and Jalan Sentul Manis"
22,50554,Kuala Lumpur,KUL,3.126585006713867,101.71365356445312,"3.126585006713867,101.71365356445312","Jalan Loke Yew, between Jalan Chan Sow Lin and Jalan Metro Pudu"
23,50556,Kuala Lumpur,KUL,3.175273895263672,101.72237396240234,"3.175273895263672,101.72237396240234","Jalan Padang Tembak, between Jalan Laksamana and Jalan Kementah"
24,50564,Kuala Lumpur,KUL,3.1702399253845215,101.69805908203125,"3.1702399253845215,101.69805908203125",Jalan Pahang and Jalan Taiping
25,50566,Kuala Lumpur,KUL,3.1375930309295654,101.68733978271484,"3.1375930309295654,101.68733978271484",Jalan Sultan Hishamuddin and Jalan Stesen Sentral
26,50572,Kuala Lumpur,KUL,3.1706631183624268,101.71102142333984,"3.1706631183624268,101.71102142333984",Jalan Tun Razak and Jalan 1/65A
27,50576,Kuala Lumpur,KUL,3.1709439754486084,101.7177963256836,"3.1709439754486084,101.7177963256836","Jalan Sultan Yahya Petra, between Jalan Perumahan Gurney and Jalan Maktab"
28,50578,Kuala Lumpur,KUL,3.169883966445923,101.71792602539062,"3.169883966445923,101.71792602539062","Jalan Perumahan Gurney, between Jalan Maktab 4 and Jalan Sultan Yahya Petra"
29,50582,Kuala Lumpur,KUL,3.130481004714966,101.71479797363281,"3.130481004714966,101.71479797363281","Jalan Metro Pudu, between Jalan Metro Pudu 2 and Jalan Metro Pudu 1"
30,50586,Kuala Lumpur,KUL,3.1696341037750244,101.7026138305664,"3.1696341037750244,101.7026138305664","Jalan Doktor Latiff, between Jalan Masjid Hospital and Jalan Raja Muda Abdul Aziz"
31,50588,Kuala Lumpur,KUL,3.16872501373291,101.6991195678711,"3.16872501373291,101.6991195678711","Jalan Pahang, between Jalan Sultan Azlan Shah and Jalan Masjid Hospital"
32,50590,Kuala Lumpur,KUL,3.175565004348755,101.6989517211914,"3.175565004348755,101.6989517211914",Lorong Kolam Air 8 and Jalan Keruing
33,50598,Kuala Lumpur,KUL,3.153831958770752,101.69523620605469,"3.153831958770752,101.69523620605469",Jalan Raja Laut and Jalan Bunus
34,50603,Kuala Lumpur,KUL,3.121135950088501,101.64857482910156,"3.121135950088501,101.64857482910156",Lorong 16/10A and Persiaran Bernas
35,50608,Kuala Lumpur,KUL,3.1539371013641357,101.66619110107422,"3.1539371013641357,101.66619110107422","Lorong Dungun, between Jalan Dungun and Changkat Semantan"
36,50609,Kuala Lumpur,KUL,3.158318042755127,101.69503021240234,"3.158318042755127,101.69503021240234","Jalan Merpati, between Jalan Raja Laut and Jalan Tuanku Abdul Rahman"
37,50612,Kuala Lumpur,KUL,3.161781072616577,101.69486999511719,"3.161781072616577,101.69486999511719",Jalan Chagar and Jalan Tiong Nam
38,50614,Kuala Lumpur,KUL,3.113284111022949,101.67036437988281,"3.113284111022949,101.67036437988281",Lebuhraya Persekutuan and Mid Valley Expressway
39,50621,Kuala Lumpur,KUL,3.141036033630371,101.69327545166016,"3.141036033630371,101.69327545166016","Jalan Kinabalu, between Bulatan Hishamuddin and Bulatan Hishamuddin"
40,50634,Kuala Lumpur,KUL,3.1733360290527344,101.72715759277344,"3.1733360290527344,101.72715759277344","Jalan Tekpi, between Jalan Padang Tembak and Jalan Chenderik"
41,50646,Kuala Lumpur,KUL,3.146972894668579,101.69003295898438,"3.146972894668579,101.69003295898438","Jalan Cenderasari, between Jalan Tugu and Jalan Lembah"
42,50650,Kuala Lumpur,KUL,3.146754026412964,101.6629409790039,"3.146754026412964,101.6629409790039",Jalan Damanlela and Jalan Damansuria
43,50652,Kuala Lumpur,KUL,3.072216033935547,101.70985412597656,"3.072216033935547,101.70985412597656","Jalan Tasik Selatan 4, between Jalan Tasik Selatan 3 and Jalan Tasik Selatan 3"
44,50656,Kuala Lumpur,KUL,3.1463611125946045,101.6933822631836,"3.1463611125946045,101.6933822631836","Jalan Sultan Hishamuddin, between Leboh Pasar Besar and Jalan Kinabalu"
45,50658,Kuala Lumpur,KUL,3.1583309173583984,101.7199935913086,"3.1583309173583984,101.7199935913086",Jalan Tun Razak and Jalan Ampang
46,50662,Kuala Lumpur,KUL,3.1482110023498535,101.64359283447266,"3.1482110023498535,101.64359283447266","Jalan Bukit Kiara, between Persiaran Bukit Kiara and Persiaran Bukit Kiara"
47,50664,Kuala Lumpur,KUL,3.0994300842285156,101.71236419677734,"3.0994300842285156,101.71236419677734","Jalan Dwitasik 1, between Jalan Dwitasik and Jalan Sri Permaisuri"
48,50668,Kuala Lumpur,KUL,3.1468899250030518,101.66312408447266,"3.1468899250030518,101.66312408447266",Jalan Damanlela and Jalan Damansuria
49,50670,Kuala Lumpur,KUL,3.145040988922119,101.69720458984375,"3.145040988922119,101.69720458984375","Jalan Tun Tan Cheng Lock, between Jalan Petaling and Jalan Tun H.S. Lee"
50,50673,Kuala Lumpur,KUL,3.119966983795166,101.67158508300781,"3.119966983795166,101.67158508300781","Jalan Kilat, between Jalan Ranau and Jalan Bangsar"
51,50688,Kuala Lumpur,KUL,3.1359078884124756,101.68807983398438,"3.1359078884124756,101.68807983398438","Jalan Stesen Sentral 2, between Jalan Stesen Sentral and Jalan Stesen Sentral"
52,50726,Kuala Lumpur,KUL,3.1467819213867188,101.69462585449219,"3.1467819213867188,101.69462585449219","Leboh Pasar Besar, between Jalan Mahkamah Persekutuan and Jalan Sultan Hishamuddin"
53,50732,Kuala Lumpur,KUL,3.150531053543091,101.69239044189453,"3.150531053543091,101.69239044189453","Jalan Parlimen, between Bulatan Dato Onn and Jalan Tangsi"
54,50738,Kuala Lumpur,KUL,3.166778087615967,101.70159912109375,"3.166778087615967,101.70159912109375","Jalan Hussein, between Jalan Abdul Rahman Idris and Jalan Raja Hussein 2"
55,50746,Kuala Lumpur,KUL,3.1673738956451416,101.69226837158203,"3.1673738956451416,101.69226837158203","Jalan Putra, between Jalan Tun Ismail and Jalan 1/64D"
56,50766,Kuala Lumpur,KUL,3.1255290508270264,101.72846221923828,"3.1255290508270264,101.72846221923828","Jalan Jejaka, between Jalan Jejaka 1 and Jalan Cheras"
57,50772,Kuala Lumpur,KUL,3.1927969455718994,101.72999572753906,"3.1927969455718994,101.72999572753906",Jalan 15/26 and Jalan 14/26
58,50774,Kuala Lumpur,KUL,3.1585071086883545,101.70101165771484,"3.1585071086883545,101.70101165771484","Jalan Sultan Ismail, between Jalan Raja Abdullah and Jalan Doraisamy"
59,50786,Kuala Lumpur,KUL,3.1453359127044678,101.69931030273438,"3.1453359127044678,101.69931030273438",Lorong Hang Jebat and Jalan Tun Tan Cheng Lock
60,50929,Kuala Lumpur,KUL,3.1536738872528076,101.69304656982422,"3.1536738872528076,101.69304656982422",Jalan Kuching and Jalan Dato Onn
61,50990,Kuala Lumpur,KUL,3.1564080715179443,101.72089385986328,"3.1564080715179443,101.72089385986328","Jalan Tun Razak, between Lorong Kuda and Lorong Kuda"
62,51000,Kuala Lumpur,KUL,3.1957409381866455,101.693115234375,"3.1957409381866455,101.693115234375",Jalan Sentul Impian and Jalan Sentul Endah
63,51200,Kuala Lumpur,KUL,3.188905954360962,101.65324401855469,"3.188905954360962,101.65324401855469",Jalan 6/38D and Jalan 8/38D
64,52000,Kuala Lumpur,KUL,3.207839012145996,101.64884948730469,"3.207839012145996,101.64884948730469","Jalan 7/33B, between Jalan 33B and Jalan 33B"
65,52200,Kuala Lumpur,KUL,3.1907451152801514,101.62946319580078,"3.1907451152801514,101.62946319580078",Jalan Manja 4 and Jalan Burung Hantu
66,53000,Kuala Lumpur,KUL,3.201878070831299,101.69881439208984,"3.201878070831299,101.69881439208984",Lorong Balai Raya and Jalan Sungai
67,53300,Setapak,KUL,3.194566011428833,101.72697448730469,"3.194566011428833,101.72697448730469","Jalan Rejang 1, between Jalan Seri Rejang 5 and Jalan Seri Rejang 3"
68,54100,Kuala Lumpur,KUL,3.171217918395996,101.71601104736328,"3.171217918395996,101.71601104736328","Lorong Gurney, between Jalan San Ah Wing and Jalan Sultan Yahya Petra"
69,55000,Kuala Lumpur,KUL,3.150726079940796,101.73519897460938,"3.150726079940796,101.73519897460938",Jalan U-Thant and Lingkungan U-Thant
70,55100,Kuala Lumpur,KUL,3.1363909244537354,101.73390197753906,"3.1363909244537354,101.73390197753906","Jalan Pria 1, between Jalan Pria 8 and Jalan Pria"
71,55200,Kuala Lumpur,KUL,3.1248879432678223,101.72505187988281,"3.1248879432678223,101.72505187988281","Jalan Kelian, between Jalan Lombong and Jalan Palong"
72,56000,Kuala Lumpur,KUL,3.1144421100616455,101.72283172607422,"3.1144421100616455,101.72283172607422",Jalan 5/89A and Jalan Sekilau
73,57000,Kuala Lumpur,KUL,3.071108102798462,101.69304656982422,"3.071108102798462,101.69304656982422",Jalan Radin Bagus and Jalan Radin Bagus 6
74,57100,Kuala Lumpur,KUL,3.11558198928833,101.72151947021484,"3.11558198928833,101.72151947021484","Lorong Ikan Emas, between Jalan Ikan Emas and Jalan Ikan Emas"
75,58000,Kuala Lumpur,KUL,3.1145260334014893,101.68267059326172,"3.1145260334014893,101.68267059326172","Jalan Teluk Batu, between Jalan Teluk Pulai and Lengkongan Jenjarom"
76,59000,Kuala Lumpur,KUL,3.128453016281128,101.67500305175781,"3.128453016281128,101.67500305175781","Lorong Maarof, between Jalan Bukit Bangsar and Jalan Maarof"
77,59200,Kuala Lumpur,KUL,3.1058239936828613,101.66642761230469,"3.1058239936828613,101.66642761230469",Jalan Pantai Permai 12 and Jalan Pantai Permai 7
78,60000,Kuala Lumpur,KUL,3.1520979404449463,101.6264419555664,"3.1520979404449463,101.6264419555664",Medan Athinahapan 2 and Medan Athinahapan 1
